[{"OBJECT_NAME":"LUDI TANCE 1-01B (L-SAR 01B)","OBJECT_ID":"2022-018A","EPOCH":"2026-03-07T13:37:23.300256","MEAN_MOTION":14.88408066,"ECCENTRICITY":0.0001606,"INCLINATION":97.8122,"RA_OF_ASC_NODE":75.4265,"ARG_OF_PERICENTER":91.5383,"MEAN_ANOMALY":268.6018,"EPHEMERIS_TYPE":0,"CLASSIFICATION_TYPE":"U","NORAD_CAT_ID":51822,"ELEMENT_SET_NO":999,"REV_AT_EPOCH":21859,"BSTAR":3.0068e-5,"MEAN_MOTION_DOT":2.24e-6,"MEAN_MOTION_DDOT":0},{"OBJECT_NAME":"SL-14 R\/B","OBJECT_ID":"1990-010B","EPOCH":"2026-03-09T14:52:00.601824","MEAN_MOTION":14.83568711,"ECCENTRICITY":0.0018538,"INCLINATION":82.4987,"RA_OF_ASC_NODE":267.4549,"ARG_OF_PERICENTER":302.6174,"MEAN_ANOMALY":57.3252,"EPHEMERIS_TYPE":0,"CLASSIFICATION_TYPE":"U","NORAD_CAT_ID":20466,"ELEMENT_SET_NO":999,"REV_AT_EPOCH":92847,"BSTAR":6.0041e-5,"MEAN_MOTION_DOT":5.19e-6,"MEAN_MOTION_DDOT":0}]
